#aV2016  4 10  0  0  0.00000000     288 DD+AD WGS84 FIT  NGA
## 1892      0.00000000   300.00000000 57488 0.0000000000000
+   31     1  2  3  5  6  7  8  9 10 11 12 13 14 15 16 17 18
+         19 20 21 22 23 24 25 26 27 28 29 30 31 32  0  0  0
+          0  0  0  0  0  0  0  0  0  0  0  0  0  0  0  0  0
+          0  0  0  0  0  0  0  0  0  0  0  0  0  0  0  0  0
+          0  0  0  0  0  0  0  0  0  0  0  0  0  0  0  0  0
++         2  2  2  2  2  2  2  2  2  2  2  2  2  2  2  2  2
++         2  2  2  2  2  2  2  2  2  2  2  2  2  2  0  0  0
++         0  0  0  0  0  0  0  0  0  0  0  0  0  0  0  0  0
++         0  0  0  0  0  0  0  0  0  0  0  0  0  0  0  0  0
++         0  0  0  0  0  0  0  0  0  0  0  0  0  0  0  0  0
%c cc cc ccc ccc cccc cccc cccc cccc ccccc ccccc ccccc ccccc
%c cc cc ccc ccc cccc cccc cccc cccc ccccc ccccc ccccc ccccc
%f  0.0000000  0.000000000  0.00000000000  0.000000000000000
%f  0.0000000  0.000000000  0.00000000000  0.000000000000000
%i    0    0    0    0      0      0      0      0         0
%i    0    0    0    0      0      0      0      0         0
/*      NGA, ST. LOUIS,MO.                                  
/*   EPHEMERIS COMPUTED FROM 2 DAYS OF DATA                 
/*   EPOCHA v2.4 SMOOTHER                                   
/*   G1762 IERS2010 SATAF SATAPC                            
*  2016  4 10  2 45  0.00000000
P  1  18806.622628   7645.537310  17171.046813     16.873878                    
V  1  10213.581649  19382.890183 -19506.951265      0.011364                    
P  2 -14297.511444 -22625.599910   1385.312117    597.785138                    
V  2   3197.619236   -701.915561  31019.730175     -0.017657                    
P  3  17547.578499  -3900.932894  19561.189356    -45.807639                    
V  3 -10469.375826  22547.993152  13881.492764     -0.041391                    
P  5  -7783.661513 -15984.275020 -19741.059531   -130.258493                    
V  5  12663.469621 -21632.518512  12759.874544      0.032019                    
P  6  -3065.438425 -22573.225769  13670.408597    173.421717                    
V  6  11078.308240  13496.417076  24794.072295      0.056929                    
P  7  12220.399835  -8797.647574 -21731.989268    460.912557                    
V  7  14595.593739  23794.995736  -1805.658247     -0.020001                    
P  8  23306.878448   6529.731276 -10918.284177    -30.783382                    
V  8 -13807.945266   3017.621949 -27500.462557     -0.014516                    
P  9  23016.800939  -8368.036851 -10314.948123    106.873897                    
V  9  13183.490836   2001.877338  27826.808725      0.074651                    
P 10 -10129.700570  24305.607977   3226.230185      5.890514                    
V 10  -4437.179934   2292.850631 -31421.815025     -0.097052                    
P 11  23348.815016   8795.210810   8616.656895   -640.162370                    
V 11   6784.255629  10645.924093 -27451.080776     -0.014714                    
P 12 -15846.044336   -464.031719  21141.176062    375.733278                    
V 12  13272.378539 -23643.579262   9586.985930      0.014112                    
P 13 -16755.475584 -12500.096513 -16464.950128     -9.804896                    
V 13  20730.468065   -129.089817 -21257.618055     -0.027081                    
P 14  -7130.611916  14516.344339  21297.241255     -7.482715                    
V 14 -26426.677498  -1678.083988  -7951.269022     -0.021365                    
P 15 -25412.466300  -3297.857094  -7753.781377   -305.752424                    
V 15   9275.215310  -4111.740771 -28771.409603     -0.017327                    
P 16   5465.222973  16306.710290 -20217.323442    -25.712484                    
V 16 -14239.938606  21173.279096  13671.108422      0.028010                    
P 17   9550.471235 -13980.963219  20744.825409   -202.976358                    
V 17  25599.527425   1003.745113 -11470.957909     -0.003312                    
P 18 -15889.135667  19469.545547  -7637.675147    502.984036                    
V 18   1021.865571 -11220.516639 -28996.279089      0.041787                    
P 19  -1483.154521 -14876.308022  21696.103462   -525.592416                    
V 19  28081.408210   1137.290451   3043.208842     -0.000770                    
P 20 -16889.539053     64.079223 -20659.618490    404.963123                    
V 20   9317.807172 -24309.366423  -7701.361997      0.024715                    
P 21  -9535.886770  12831.502096 -20427.581160   -518.450042                    
V 21 -16250.716879 -22588.340986  -6630.793608     -0.015102                    
P 22  13471.927657   9069.986684  21263.504268    365.580065                    
V 22 -12023.955279  23715.698147  -2684.685519     -0.072696                    
P 23  26781.993902  -1075.511896     25.524116   -168.678901                    
V 23    300.892655   2879.761948  31148.832764     -0.017432                    
P 24 -19551.294527 -10353.669557  14778.786270    -15.263439                    
V 24  -8559.201617 -16903.075016 -22882.995685     -0.005632                    
P 25 -17922.431384  12173.652170  15111.216810   -150.184964                    
V 25   7493.721423 -18027.399549  23417.651230     -0.070811                    
P 26  -1722.069513  23078.381362 -12994.404379   -324.808986                    
V 26  -9634.326567  13608.357451  25496.376841     -0.137324                    
P 27  14858.307766  12034.587538 -18530.528942     80.628629                    
V 27 -23312.814199   2266.832194 -17083.924913      0.038668                    
P 28  12132.763986 -23443.009178   3310.532422    515.115148                    
V 28   3396.798264  -1903.989783 -32059.671847      0.026105                    
P 29 -24910.378162   4842.959377  -7741.939598    656.792354                    
V 29  -9809.377649  -2354.753091  30083.134266      0.002771                    
P 30   5169.032857 -18253.651085 -18561.239245    115.194579                    
V 30  12635.061525  20008.843013 -16255.358299      0.035659                    
P 31   4407.426364  23306.988611  11672.342721    274.463442                    
V 31  -9487.989565 -11566.606096  27271.026458     -0.017696                    
P 32  -6482.480553  14974.769554  20957.749818      6.710280                    
V 32 -26616.267889    438.959742  -8553.527714     -0.027133                    
EOF
